IRIDIUM 106             
1 41917U 17003A   25174.90391506  .00000006  00000+0 -47508-5 0  9990
2 41917  86.3971 238.1956 0002173  80.8298 279.3144 14.34217766441853
IRIDIUM 103             
1 41918U 17003B   25174.89123162  .00000116  00000+0  34528-4 0  9998
2 41918  86.3969 238.1018 0002913  91.4355 268.7174 14.34218156441875
IRIDIUM 109             
1 41919U 17003C   25175.10687855  .00000047  00000+0  97944-5 0  9993
2 41919  86.3972 238.0653 0002367  96.8929 263.2536 14.34217810441893
IRIDIUM 102             
1 41920U 17003D   25174.79608508  .00000161  00000+0  50300-4 0  9998
2 41920  86.3968 238.1262 0002266  96.8340 263.3114 14.34217542441910
IRIDIUM 105             
1 41921U 17003E   25174.83659726  .00000242  00000+0  79446-4 0  9994
2 41921  86.3988 206.5781 0002552  91.2828 268.8660 14.34217386443774
IRIDIUM 104             
1 41922U 17003F   25174.87854521  .00000123  00000+0  36996-4 0  9990
2 41922  86.3971 238.1290 0002667  99.7293 260.4204 14.34218057441911
IRIDIUM 114             
1 41923U 17003G   25174.88488722  .00000097  00000+0  27514-4 0  9994
2 41923  86.3969 238.1109 0002617  90.3947 269.7548 14.34218429441912
IRIDIUM 108             
1 41924U 17003H   25174.84340852  .00000059  00000+0  14022-4 0  9990
2 41924  86.3981 206.4762 0002166  88.8182 271.3261 14.34217908443747
